NORAD_CAT_ID,OBJECT_NAME,OBJECT_TYPE,EPOCH,MEAN_MOTION,ECCENTRICITY,INCLINATION,RA_OF_ASC_NODE,ARG_OF_PERICENTER,MEAN_ANOMALY,BSTAR,MEAN_MOTION_DOT,MEAN_MOTION_DDOT,TLE_LINE0,TLE_LINE1,TLE_LINE2,SEMIMAJOR_AXIS,PERIOD,APOGEE,PERIGEE,DECAYED
54206.0,STARLINK-5264,PAYLOAD,2022-11-13 14:00:01,15.7335895,9.62e-05,53.2171,61.5797,23.5975,339.2177,-0.0017136,-0.00236078,0.0,0 STARLINK-5264,1 54206U 22141BB  22317.58334491 -.00236078  00000-0 -17136-2 0  9997,2 54206  53.2171  61.5797 0000962  23.5975 339.2177 15.73358950  2876,6727.441999999999,91.524,349.954,348.66,0.0
54206.0,STARLINK-5264,PAYLOAD,2022-11-13 20:00:01,15.73286381,0.0001401,53.2149,60.3447,10.4718,329.0557,-0.00026075,-0.00037189,0.0,0 STARLINK-5264,1 54206U 22141BB  22317.83334491 -.00037189  00000-0 -26075-3 0  9990,2 54206  53.2149  60.3447 0001401  10.4718 329.0557 15.73286381  2911,6727.649,91.528,350.456,348.571,0.0
54206.0,STARLINK-5264,PAYLOAD,2022-11-13 22:00:00,15.73289806,0.0001375,53.215,59.9316,14.7324,77.05,-0.00041309,-0.00058416,0.0,0 STARLINK-5264,1 54206U 22141BB  22317.91667824 -.00058416  00000-0 -41309-3 0  9991,2 54206  53.2150  59.9316 0001375  14.7324  77.0500 15.73289806  1307,6727.639,91.528,350.42900000000014,348.579,0.0
54206.0,STARLINK-5264,PAYLOAD,2022-11-14 14:00:01,15.7322059,0.000171,53.2163,56.6326,30.3359,239.4338,-7.3563e-05,-0.00010941,0.0,0 STARLINK-5264,1 54206U 22141BB  22318.58334491 -.00010941  00000-0 -73563-4 0  9995,2 54206  53.2163  56.6326 0001710  30.3359 239.4338 15.73220590  1309,6727.8359999999975,91.532,350.852,348.551,0.0
54206.0,STARLINK-5264,PAYLOAD,2022-11-14 22:00:00,15.73083408,0.0001421,53.2165,54.9814,24.4499,334.3033,0.0006484,0.00090912,0.0,0 STARLINK-5264,1 54206U 22141BB  22318.91667824  .00090912  00000-0  64840-3 0  9992,2 54206  53.2165  54.9814 0001421  24.4499 334.3033 15.73083408  3081,6728.228,91.54,351.0490000000001,349.13699999999994,0.0
54206.0,STARLINK-5264,PAYLOAD,2022-11-15 06:00:00,15.73203343,0.0001644,53.2149,53.3317,38.1096,49.5119,-2.4231e-05,-4.02e-05,0.0,0 STARLINK-5264,1 54206U 22141BB  22319.25001157 -.00004020  00000-0 -24231-4 0  9999,2 54206  53.2149  53.3317 0001644  38.1096  49.5119 15.73203343  3134,6727.886,91.533,350.857,348.645,0.0
54206.0,STARLINK-5264,PAYLOAD,2022-11-15 14:00:01,15.73187426,0.0001938,53.2149,51.6843,34.2138,142.3433,0.00046011,0.00064417,0.0,0 STARLINK-5264,1 54206U 22141BB  22319.58334491  .00064417  00000-0  46011-3 0  9998,2 54206  53.2149  51.6843 0001938  34.2138 142.3433 15.73187426  1300,6727.931,91.534,351.1,348.492,0.0
54206.0,STARLINK-5264,PAYLOAD,2022-11-15 22:00:00,15.73289402,0.0001774,53.2154,50.0333,28.1879,237.2997,-0.001066,-0.00148197,0.0,0 STARLINK-5264,1 54206U 22141BB  22319.91667824 -.00148197  00000-0 -10660-2 0  9994,2 54206  53.2154  50.0333 0001774  28.1879 237.2997 15.73289402  3235,6727.64,91.528,350.699,348.31199999999984,0.0
54206.0,STARLINK-5264,PAYLOAD,2022-11-16 14:00:01,15.73109433,0.0001854,53.2174,46.7338,23.9621,59.4547,0.0010492,0.00148686,0.0,0 STARLINK-5264,1 54206U 22141BB  22320.58335648  .00148686  00000-0  10492-2 0  9999,2 54206  53.2174  46.7338 0001854  23.9621  59.4547 15.73109433  3343,6728.153,91.538,351.266,348.771,0.0
54206.0,STARLINK-5264,PAYLOAD,2022-11-16 20:00:01,15.73205015,0.0001853,53.2171,45.4958,21.6522,38.351,-4.6826e-06,-1.278e-05,0.0,0 STARLINK-5264,1 54206U 22141BB  22320.83334491 -.00001278  00000-0 -46826-5 0  9992,2 54206  53.2171  45.4958 0001853  21.6522  38.3510 15.73205015  3381,6727.880999999999,91.533,350.99300000000005,348.499,0.0
54206.0,STARLINK-5264,PAYLOAD,2022-11-16 22:00:08,15.73206117,0.0001785,53.2173,45.0824,22.5332,150.1629,-2.7799e-05,-4.521e-05,0.0,0 STARLINK-5264,1 54206U 22141BB  22320.91675926 -.00004521  00000-0 -27799-4 0  9993,2 54206  53.2173  45.0824 0001785  22.5332 150.1629 15.73206117  1302,6727.878000000002,91.533,350.944,348.542,0.0
54206.0,STARLINK-5264,PAYLOAD,2022-11-17 12:00:00,15.73216507,0.0002085,53.2151,42.1987,29.7182,208.2385,-0.00022576,-0.00032209,0.0,0 STARLINK-5264,1 54206U 22141BB  22321.50001157 -.00032209  00000-0 -22576-3 0  9999,2 54206  53.2151  42.1987 0002085  29.7182 208.2385 15.73216507  3481,6727.848000000001,91.532,351.116,348.31,0.0
54206.0,STARLINK-5264,PAYLOAD,2022-11-17 14:00:01,15.73184369,0.0002123,53.2153,41.7867,29.1693,321.0313,0.00022843,0.00031539,0.0,0 STARLINK-5264,1 54206U 22141BB  22321.58334491  .00031539  00000-0  22843-3 0  9997,2 54206  53.2153  41.7867 0002123  29.1693 321.0313 15.73184369  1303,6727.94,91.534,351.233,348.376,0.0
54206.0,STARLINK-5264,PAYLOAD,2022-11-17 22:00:00,15.73210669,0.0002074,53.2155,40.1358,29.3525,49.7739,-0.00034206,-0.00048378,0.0,0 STARLINK-5264,1 54206U 22141BB  22321.91667824 -.00048378  00000-0 -34206-3 0  9990,2 54206  53.2155  40.1358 0002074  29.3525  49.7739 15.73210669  1303,6727.865,91.533,351.125,348.334,0.0
54206.0,STARLINK-5264,PAYLOAD,2022-11-18 06:00:00,15.732056699999998,0.0002063,53.2159,38.4855,33.5002,134.5404,-0.00036955,-0.00052182,0.0,0 STARLINK-5264,1 54206U 22141BB  22322.25001157 -.00052182  00000-0 -36955-3 0  9990,2 54206  53.2159  38.4855 0002063  33.5002 134.5404 15.73205670  3607,6727.879,91.533,351.13199999999995,348.356,0.0
54206.0,STARLINK-5264,PAYLOAD,2022-11-18 14:00:01,15.73143297,0.0002341,53.2158,36.838,27.9467,229.0108,0.0005062,0.00070855,0.0,0 STARLINK-5264,1 54206U 22141BB  22322.58334491  .00070855  00000-0  50620-3 0  9996,2 54206  53.2158  36.8380 0002341  27.9467 229.0108 15.73143297  1304,6728.057,91.536,351.497,348.347,0.0
54206.0,STARLINK-5264,PAYLOAD,2022-11-18 20:00:01,15.73209133,0.0002272,53.2152,35.5999,27.8634,205.7892,8.447799999999999e-05,0.00011256,0.0,0 STARLINK-5264,1 54206U 22141BB  22322.83334491  .00011256  00000-0  84478-4 0  9993,2 54206  53.2152  35.5999 0002272  27.8634 205.7892 15.73209133  3695,6727.869000000002,91.533,351.26300000000015,348.206,0.0
54206.0,STARLINK-5264,PAYLOAD,2022-11-18 22:00:00,15.73208638,0.0002185,53.2154,35.187,29.1008,316.7866,0.00018608,0.00025585,0.0,0 STARLINK-5264,1 54206U 22141BB  22322.91667824  .00025585  00000-0  18608-3 0  9992,2 54206  53.2154  35.1870 0002185  29.1008 316.7866 15.73208638  1303,6727.871,91.533,351.206,348.266,0.0
54206.0,STARLINK-5264,PAYLOAD,2022-11-19 14:00:01,15.73219364,0.0002272,53.2158,31.8895,21.3378,142.4745,2.9236e-05,3.487e-05,0.0,0 STARLINK-5264,1 54206U 22141BB  22323.58334491  .00003487  00000-0  29236-4 0  9994,2 54206  53.2158  31.8895 0002272  21.3378 142.4745 15.73219364  1306,6727.84,91.532,351.2340000000001,348.176,0.0
54206.0,STARLINK-5264,PAYLOAD,2022-11-19 22:00:00,15.73195903,0.0002163,53.2161,30.2383,20.0338,232.7398,0.00020015,0.00027558,0.0,0 STARLINK-5264,1 54206U 22141BB  22323.91667824  .00027558  00000-0  20015-3 0  9990,2 54206  53.2161  30.2383 0002163  20.0338 232.7398 15.73195903  1305,6727.906999999997,91.533,351.227,348.31699999999995,0.0
54206.0,STARLINK-5264,PAYLOAD,2022-11-20 06:00:00,15.73252229,0.0002185,53.2163,28.5884,24.8107,316.8878,-0.00053878,-0.00075736,0.0,0 STARLINK-5264,1 54206U 22141BB  22324.25001157 -.00075736  00000-0 -53878-3 0  9995,2 54206  53.2163  28.5884 0002185  24.8107 316.8878 15.73252229  3925,6727.746,91.53,351.081,348.141,0.0
54206.0,STARLINK-5264,PAYLOAD,2022-11-20 14:00:01,15.73196409,0.0002497,53.2162,26.9408,23.6766,46.9773,-0.00015141,-0.00021816,0.0,0 STARLINK-5264,1 54206U 22141BB  22324.58334491 -.00021816  00000-0 -15141-3 0  9992,2 54206  53.2162  26.9408 0002497  23.6766  46.9773 15.73196409  1304,6727.905,91.533,351.45,348.09,0.0
54206.0,STARLINK-5264,PAYLOAD,2022-11-20 22:00:00,15.73158301,0.0002309,53.2159,25.2896,22.2787,137.2972,0.00027963,0.00038737,0.0,0 STARLINK-5264,1 54206U 22141BB  22324.91667824  .00038737  00000-0  27963-3 0  9991,2 54206  53.2159  25.2896 0002309  22.2787 137.2972 15.73158301  4029,6728.014,91.536,351.43300000000005,348.326,0.0
54206.0,STARLINK-5264,PAYLOAD,2022-11-21 14:00:01,15.73148561,0.000267,53.2159,21.9928,28.0279,309.3672,0.00071163,0.0010024,0.0,0 STARLINK-5264,1 54206U 22141BB  22325.58334491  .00100240  00000-0  71163-3 0  9996,2 54206  53.2159  21.9928 0002670  28.0279 309.3672 15.73148561  4137,6728.042,91.536,351.70300000000015,348.11,0.0
54206.0,STARLINK-5264,PAYLOAD,2022-11-21 22:00:00,15.7321789,0.0002476,53.2162,20.3414,28.256,38.0442,0.00012634,0.00017161,0.0,0 STARLINK-5264,1 54206U 22141BB  22325.91667824  .00017161  00000-0  12634-3 0  9999,2 54206  53.2162  20.3414 0002476  28.2560  38.0442 15.73217890  1302,6727.844,91.532,351.375,348.043,0.0
54206.0,STARLINK-5264,PAYLOAD,2022-11-22 06:00:02,15.732234699999998,0.0002486,53.2164,18.6918,27.8041,127.5231,2.7746e-06,-2.32e-06,0.0,0 STARLINK-5264,1 54206U 22141BB  22326.25002315 -.00000232  00000-0  27746-5 0  9999,2 54206  53.2164  18.6918 0002486  27.8041 127.5231 15.73223470  4239,6727.828,91.532,351.366,348.021,0.0
54206.0,STARLINK-5264,PAYLOAD,2022-11-22 14:00:01,15.73219227,0.0002672,53.2162,17.0441,22.0937,222.1713,-0.00019714,-0.00028225,0.0,0 STARLINK-5264,1 54206U 22141BB  22326.58335648 -.00028225  00000-0 -19714-3 0  9990,2 54206  53.2162  17.0441 0002672  22.0937 222.1713 15.73219227  1306,6727.84,91.532,351.50300000000016,347.908,0.0
54206.0,STARLINK-5264,PAYLOAD,2022-11-22 20:00:01,15.73219392,0.0002483,53.2158,15.8055,19.7771,201.1255,-0.00065467,-0.00091598,0.0,0 STARLINK-5264,1 54206U 22141BB  22326.83334491 -.00091598  00000-0 -65467-3 0  9992,2 54206  53.2158  15.8055 0002483  19.7771 201.1255 15.73219392  4323,6727.84,91.532,351.375,348.034,0.0
54206.0,STARLINK-5264,PAYLOAD,2022-11-22 22:00:00,15.73188629,0.0002381,53.2159,15.3927,19.088,314.0525,-0.00033296,-0.00047073,0.0,0 STARLINK-5264,1 54206U 22141BB  22326.91667824 -.00047073  00000-0 -33296-3 0  9994,2 54206  53.2159  15.3927 0002381  19.0880 314.0525 15.73188629  1305,6727.928000000001,91.534,351.395,348.191,0.0
